NORAD_CAT_ID,OBJECT_NAME,OBJECT_TYPE,EPOCH,MEAN_MOTION,ECCENTRICITY,INCLINATION,RA_OF_ASC_NODE,ARG_OF_PERICENTER,MEAN_ANOMALY,BSTAR,MEAN_MOTION_DOT,MEAN_MOTION_DDOT,TLE_LINE0,TLE_LINE1,TLE_LINE2,SEMIMAJOR_AXIS,PERIOD,APOGEE,PERIGEE,DECAYED
49767.0,STARLINK-3192,PAYLOAD,2023-02-20 19:31:18,15.0883633,0.0001586,53.2145,95.0154,85.8681,274.2492,0.00020239,2.934e-05,0.0,0 STARLINK-3192,1 49767U 21115AV  23051.81340576  .00002934  00000-0  20239-3 0  9995,2 49767  53.2145  95.0154 0001586  85.8681 274.2492 15.08836330 68781,6917.892,95.438,540.854,538.659,0.0
49767.0,STARLINK-3192,PAYLOAD,2023-02-21 13:00:32,15.08862061,0.0001134,53.2142,91.7443,92.3564,267.7558,0.0010959,0.00017207,0.0,0 STARLINK-3192,1 49767U 21115AV  23052.54204013  .00017207  00000-0  10959-2 0  9997,2 49767  53.2142  91.7443 0001134  92.3564 267.7558 15.08862061 68896,6917.813,95.436,540.462,538.893,0.0
49767.0,STARLINK-3192,PAYLOAD,2023-02-21 19:22:05,15.08850149,0.0001542,53.2139,90.5551,84.4515,275.6653,0.0011309,0.00017761,0.0,0 STARLINK-3192,1 49767U 21115AV  23052.80700456  .00017761  00000-0  11309-2 0  9993,2 49767  53.2139  90.5551 0001542  84.4515 275.6653 15.08850149 68933,6917.849,95.437,540.781,538.648,0.0
49767.0,STARLINK-3192,PAYLOAD,2023-02-22 11:15:56,15.08844365,0.0001234,53.2138,87.5814,80.1643,279.9489,0.00092875,0.00014526,0.0,0 STARLINK-3192,1 49767U 21115AV  23053.46940424  .00014526  00000-0  92875-3 0  9991,2 49767  53.2138  87.5814 0001234  80.1643 279.9489 15.08844365 69032,6917.867,95.437,540.586,538.878,0.0
49767.0,STARLINK-3192,PAYLOAD,2023-02-22 19:12:51,15.08843268,1.75e-05,53.2136,86.0939,127.8136,232.2872,0.00034886,5.269e-05,0.0,0 STARLINK-3192,1 49767U 21115AV  23053.80060109  .00005269  00000-0  34886-3 0  9994,2 49767  53.2136  86.0939 0000175 127.8136 232.2872 15.08843268 67971,6917.87,95.437,539.856,539.614,0.0
49767.0,STARLINK-3192,PAYLOAD,2023-02-23 06:20:34,15.08839629,0.0001359,53.2139,84.0117,87.9093,272.2055,0.00037147,5.629e-05,0.0,0 STARLINK-3192,1 49767U 21115AV  23054.26428794  .00005629  00000-0  37147-3 0  9996,2 49767  53.2139  84.0117 0001359  87.9093 272.2055 15.08839629 69158,6917.882,95.438,540.687,538.806,0.0
49767.0,STARLINK-3192,PAYLOAD,2023-02-23 09:31:20,15.08843223,0.0001421,53.2142,83.4173,86.88,273.2355,0.00035204,5.32e-05,0.0,0 STARLINK-3192,1 49767U 21115AV  23054.39676706  .00005320  00000-0  35204-3 0  9998,2 49767  53.2142  83.4173 0001421  86.8800 273.2355 15.08843223 68069,6917.871,95.437,540.719,538.753,0.0
49767.0,STARLINK-3192,PAYLOAD,2023-02-23 19:03:39,15.08839463,0.0001311,53.2146,81.6326,81.6992,278.4149,0.00020237,2.934e-05,0.0,0 STARLINK-3192,1 49767U 21115AV  23054.79420870  .00002934  00000-0  20237-3 0  9999,2 49767  53.2146  81.6326 0001311  81.6992 278.4149 15.08839463 68122,6917.882,95.438,540.654,538.84,0.0
49767.0,STARLINK-3192,PAYLOAD,2023-02-24 06:11:21,15.08841965,0.0001388,53.2149,79.5508,80.8715,279.2435,0.00022029,3.22e-05,0.0,0 STARLINK-3192,1 49767U 21115AV  23055.25788889  .00003220  00000-0  22029-3 0  9998,2 49767  53.2149  79.5508 0001388  80.8715 279.2435 15.08841965 69309,6917.874,95.437,540.7,538.779,0.0
49767.0,STARLINK-3192,PAYLOAD,2023-02-24 10:57:30,15.08850346,0.0001387,53.215,78.6586,84.1388,275.9762,0.00026069,3.865e-05,0.0,0 STARLINK-3192,1 49767U 21115AV  23055.45660453  .00003865  00000-0  26069-3 0  9999,2 49767  53.2150  78.6586 0001387  84.1388 275.9762 15.08850346 68228,6917.849,95.437,540.673,538.754,0.0
49767.0,STARLINK-3192,PAYLOAD,2023-02-24 18:54:26,15.08839703,0.0001497,53.2153,77.172,83.8702,276.246,0.00011362,1.521e-05,0.0,0 STARLINK-3192,1 49767U 21115AV  23055.78780995  .00001521  00000-0  11362-3 0  9996,2 49767  53.2153  77.1720 0001497  83.8702 276.2460 15.08839703 68271,6917.881,95.438,540.782,538.711,0.0
49767.0,STARLINK-3192,PAYLOAD,2023-02-25 07:37:32,15.08838412,0.0001555,53.2155,74.7931,90.1727,269.9443,0.00010404,1.368e-05,0.0,0 STARLINK-3192,1 49767U 21115AV  23056.31773298  .00001368  00000-0  10404-3 0  9999,2 49767  53.2155  74.7931 0001555  90.1727 269.9443 15.08838412 69461,6917.885,95.438,540.826,538.675,0.0
49767.0,STARLINK-3192,PAYLOAD,2023-02-25 12:23:41,15.08841577,0.0001546,53.2152,73.9007,89.443,270.6739,0.00010074,1.316e-05,0.0,0 STARLINK-3192,1 49767U 21115AV  23056.51645117  .00001316  00000-0  10074-3 0  9995,2 49767  53.2152  73.9007 0001546  89.4430 270.6739 15.08841577 68388,6917.876,95.437,540.81,538.671,0.0
49767.0,STARLINK-3192,PAYLOAD,2023-02-25 18:45:14,15.08836245,0.0001584,53.2154,72.7106,92.8583,267.2591,3.0076e-07,-2.83e-06,0.0,0 STARLINK-3192,1 49767U 21115AV  23056.78141435 -.00000283  00000-0  30076-6 0  9998,2 49767  53.2154  72.7106 0001584  92.8583 267.2591 15.08836245 68425,6917.892,95.438,540.853,538.661,0.0
49767.0,STARLINK-3192,PAYLOAD,2023-02-26 10:39:04,15.08862868,0.0001399,53.2155,69.7377,87.8,272.3153,0.00055685,8.591e-05,0.0,0 STARLINK-3192,1 49767U 21115AV  23057.44380410  .00008591  00000-0  55685-3 0  9999,2 49767  53.2155  69.7377 0001399  87.8000 272.3153 15.08862868 69639,6917.81,95.436,540.643,538.708,0.0
49767.0,STARLINK-3192,PAYLOAD,2023-02-26 12:14:27,15.08865489,0.0001417,53.2158,69.4406,89.6966,270.4188,0.00073585,0.00011451,0.0,0 STARLINK-3192,1 49767U 21115AV  23057.51004433  .00011451  00000-0  73585-3 0  9993,2 49767  53.2158  69.4406 0001417  89.6966 270.4188 15.08865489 68531,6917.802,95.436,540.648,538.687,0.0
49767.0,STARLINK-3192,PAYLOAD,2023-02-27 05:43:42,15.08841808,0.0001521,53.2153,66.1683,106.349,253.767,0.00012422,1.69e-05,0.0,0 STARLINK-3192,1 49767U 21115AV  23058.23869088  .00001690  00000-0  12422-3 0  9995,2 49767  53.2153  66.1683 0001521 106.3490 253.7670 15.08841808 69756,6917.875,95.437,540.792,538.688,0.0
49767.0,STARLINK-3192,PAYLOAD,2023-02-27 08:54:29,15.08848354,0.0001543,53.216,65.575,107.9388,252.1772,0.00033278,5.013e-05,0.0,0 STARLINK-3192,1 49767U 21115AV  23058.37116954  .00005013  00000-0  33278-3 0  9992,2 49767  53.2160  65.5750 0001543 107.9388 252.1772 15.08848354 68667,6917.855,95.437,540.787,538.652,0.0
49767.0,STARLINK-3192,PAYLOAD,2023-02-27 16:51:24,15.08858856,0.0001689,53.2161,64.088,96.9114,263.207,0.001391,0.00021931,0.0,0 STARLINK-3192,1 49767U 21115AV  23058.70236825  .00021931  00000-0  13910-2 0  9996,2 49767  53.2161  64.0880 0001689  96.9114 263.2070 15.08858856 69822,6917.823,95.436,540.856,538.519,0.0
49767.0,STARLINK-3192,PAYLOAD,2023-02-28 00:48:20,15.08856603,0.0001542,53.216,62.6014,93.4879,266.6289,0.0014361,0.00022652,0.0,0 STARLINK-3192,1 49767U 21115AV  23059.03356936  .00022652  00000-0  14361-2 0  9991,2 49767  53.2160  62.6014 0001542  93.4879 266.6289 15.08856603 69874,6917.83,95.437,540.761,538.628,0.0
49767.0,STARLINK-3192,PAYLOAD,2023-02-28 11:56:01,15.08878043,0.0001636,53.2159,60.5202,93.4519,266.666,0.0013582,0.00021416,0.0,0 STARLINK-3192,1 49767U 21115AV  23059.49724080  .00021416  00000-0  13582-2 0  9991,2 49767  53.2159  60.5202 0001636  93.4519 266.6660 15.08878043 68833,6917.764,95.435,540.761,538.497,0.0
49767.0,STARLINK-3192,PAYLOAD,2023-02-28 16:42:12,15.0882107,0.000347,53.2161,59.6278,74.3706,285.7669,-0.00033648,-5.638e-05,0.0,0 STARLINK-3192,1 49767U 21115AV  23059.69597461 -.00005638  00000-0 -33648-3 0  9990,2 49767  53.2161  59.6278 0003470  74.3706 285.7669 15.08821070 68864,6917.938,95.439,542.204,537.403,0.0
49767.0,STARLINK-3192,PAYLOAD,2023-03-01 03:49:54,15.08792711,0.0001494,53.2165,57.5502,79.641,280.475,0.00042491,6.472e-05,0.0,0 STARLINK-3192,1 49767U 21115AV  23060.15966120  .00006472  00000-0  42491-3 0  9996,2 49767  53.2165  57.5502 0001494  79.6410 280.4750 15.08792711 70044,6918.025,95.441,540.923,538.856,0.0
49767.0,STARLINK-3192,PAYLOAD,2023-03-01 10:11:27,15.08812125,0.0001572,53.2174,56.3594,91.752,268.3652,-0.00025458,-4.334e-05,0.0,0 STARLINK-3192,1 49767U 21115AV  23060.42462336 -.00004334  00000-0 -25458-3 0  9997,2 49767  53.2174  56.3594 0001572  91.7520 268.3652 15.08812125 70088,6917.966,95.439,540.918,538.743,0.0
49767.0,STARLINK-3192,PAYLOAD,2023-03-01 16:33:00,15.08821724,0.0001179,53.216,55.1675,85.5787,274.534,0.0001228,1.666e-05,0.0,0 STARLINK-3192,1 49767U 21115AV  23060.68958675  .00001666  00000-0  12280-3 0  9993,2 49767  53.2160  55.1675 0001179  85.5787 274.5340 15.08821724 69018,6917.936,95.439,540.617,538.986,0.0
49767.0,STARLINK-3192,PAYLOAD,2023-03-02 03:40:42,15.08833634,0.0001556,53.2166,53.0858,81.8186,278.2983,0.00065611,0.00010168,0.0,0 STARLINK-3192,1 49767U 21115AV  23061.15327043  .00010168  00000-0  65611-3 0  9998,2 49767  53.2166  53.0858 0001556  81.8186 278.2983 15.08833634 70193,6917.9,95.438,540.841,538.688,0.0
49767.0,STARLINK-3192,PAYLOAD,2023-03-02 16:23:47,15.08857925,6.93e-05,53.2167,50.7074,94.6234,265.4837,0.00072122,0.00011215,0.0,0 STARLINK-3192,1 49767U 21115AV  23061.68318370  .00011215  00000-0  72122-3 0  9998,2 49767  53.2167  50.7074 0000693  94.6234 265.4837 15.08857925 69165,6917.826,95.436,540.17,539.211,0.0
49767.0,STARLINK-3192,PAYLOAD,2023-03-03 06:42:14,15.08891953,0.0001331,53.2157,48.0308,87.7946,272.3198,0.0024536,0.00039033,0.0,0 STARLINK-3192,1 49767U 21115AV  23062.27933444  .00039033  00000-0  24536-2 0  9992,2 49767  53.2157  48.0308 0001331  87.7946 272.3198 15.08891953 70367,6917.722,95.434,540.507,538.666,0.0
49767.0,STARLINK-3192,PAYLOAD,2023-03-03 11:28:23,15.0890679,0.0001333,53.2157,47.1382,89.485,270.6295,0.0026072,0.00041526,0.0,0 STARLINK-3192,1 49767U 21115AV  23062.47804682  .00041526  00000-0  26072-2 0  9992,2 49767  53.2157  47.1382 0001333  89.4850 270.6295 15.08906790 69288,6917.676,95.433,540.463,538.619,0.0
49767.0,STARLINK-3192,PAYLOAD,2023-03-03 16:14:32,15.088814,0.000162,53.2161,46.246,82.4287,277.6889,0.0015712,0.00024835,0.0,0 STARLINK-3192,1 49767U 21115AV  23062.67677049  .00024835  00000-0  15712-2 0  9992,2 49767  53.2161  46.2460 0001620  82.4287 277.6889 15.08881400 70420,6917.754,95.435,540.74,538.498,0.0
